[{"OBJECT_NAME":"STARLINK-5558","OBJECT_ID":"2023-021D","EPOCH":"2026-03-09T17:03:35.266176","MEAN_MOTION":14.98328248,"ECCENTRICITY":0.00032133,"INCLINATION":70.0002,"RA_OF_ASC_NODE":204.3096,"ARG_OF_PERICENTER":267.5398,"MEAN_ANOMALY":92.5393,"EPHEMERIS_TYPE":0,"CLASSIFICATION_TYPE":"U","NORAD_CAT_ID":55631,"ELEMENT_SET_NO":999,"REV_AT_EPOCH":16830,"BSTAR":0.00011941915,"MEAN_MOTION_DOT":1.332e-5,"MEAN_MOTION_DDOT":0},{"OBJECT_NAME":"PSLV DEB","OBJECT_ID":"2001-049CS","EPOCH":"2026-03-09T17:28:51.612960","MEAN_MOTION":14.96014952,"ECCENTRICITY":0.00345383,"INCLINATION":98.0485,"RA_OF_ASC_NODE":147.0031,"ARG_OF_PERICENTER":251.2293,"MEAN_ANOMALY":231.4093,"EPHEMERIS_TYPE":0,"CLASSIFICATION_TYPE":"U","NORAD_CAT_ID":27146,"ELEMENT_SET_NO":999,"REV_AT_EPOCH":30162,"BSTAR":0.00055338741,"MEAN_MOTION_DOT":6.222e-5,"MEAN_MOTION_DDOT":0}]
